norad_id,name,regime,epoch,line1,line2,inclination,eccentricity,mean_motion,raan,arg_pericenter,mean_anomaly
837,OPS 3674 (VELA 4),HAO,24270.73030233,1 00837U 64040B   24270.73030233 -.00000001  00000-0  00000-0 0    14\,2 00837  48.3926 135.6671 3809112 264.9667   0.1041  0.23998391 53227,48.3926,0.3809112,0.23998391,135.6671,264.9667,0.1041
837,OPS 3674 (VELA 4),HAO,24274.89956184,1 00837U 64040B   24274.89956184  .00000217  00000-0  00000-0 0    15\,2 00837  48.3930 135.5848 3818010 264.7953   0.5882  0.23999037 53225,48.393,0.381801,0.23999037,135.5848,264.7953,0.5882
837,OPS 3674 (VELA 4),HAO,24279.06244414,1   837U 64040B   24279.06244414  .00000373  00000-0  00000+0 0  2097\,2   837  48.3947 135.5259 3828502 264.6234   0.5425  0.23999286 52832,48.3947,0.3828502,0.23999286,135.5259,264.6234,0.5425
837,OPS 3674 (VELA 4),HAO,24283.22959613,1 00837U 64040B   24283.22959613  .00000401  00000-0  00000-0 0    17\,2 00837  48.4063 135.4648 3840123 264.4612   0.8315  0.23998555 53249,48.4063,0.3840123,0.23998555,135.4648,264.4612,0.8315
837,OPS 3674 (VELA 4),HAO,24291.55519854,1   837U 64040B   24291.55519854  .00000445  00000-0  00000+0 0  2111\,2   837  48.4188 135.3207 3866520 264.3111   0.3760  0.23985062 52864,48.4188,0.386652,0.23985062,135.3207,264.3111,0.376
837,OPS 3674 (VELA 4),HAO,24295.72479516,1   837U 64040B   24295.72479516  .00000233  00000-0  00000+0 0  2120\,2   837  48.4374 135.2223 3875046 264.2766   0.7206  0.23993624 52879,48.4374,0.3875046,0.23993624,135.2223,264.2766,0.7206
837,OPS 3674 (VELA 4),HAO,24299.89211661,1 00837U 64040B   24299.89211661  .00000331  00000-0  00000-0 0    13\,2 00837  48.4504 135.1284 3884291 264.1417   0.9560  0.23999757 53299,48.4504,0.3884291,0.23999757,135.1284,264.1417,0.956
837,OPS 3674 (VELA 4),HAO,24299.89260425,1   837U 64040B   24299.89260425  .00000331  00000-0  00000+0 0  2139\,2   837  48.4504 135.1269 3884352 264.1446   0.9972  0.23999818 52881,48.4504,0.3884352,0.23999818,135.1269,264.1446,0.9972
837,OPS 3674 (VELA 4),HAO,24308.21896674,1 00837U 64040B   24308.21896674  .00000633  00000-0  00000-0 0    18\,2 00837  48.4604 134.9978 3906345 263.8035   0.9399  0.24000020 53303,48.4604,0.3906345,0.2400002,134.9978,263.8035,0.9399
837,OPS 3674 (VELA 4),HAO,24320.71236764,1 00837U 64040B   24320.71236764  .00000542  00000-0  00000-0 0    14\,2 00837  48.4883 134.7829 3943927 263.5569   0.7329  0.23986851 53339,48.4883,0.3943927,0.23986851,134.7829,263.5569,0.7329
837,OPS 3674 (VELA 4),HAO,24329.04422624,1 00837U 64040B   24329.04422624  .00000566  00000-0  00000-0 0    17\,2 00837  48.5182 134.5965 3963612 263.3158   0.9599  0.23999798 53353,48.5182,0.3963612,0.23999798,134.5965,263.3158,0.9599
837,OPS 3674 (VELA 4),HAO,24333.20451807,1 00837U 64040B   24333.20451807  .00000693  00000-0  00000-0 0    16\,2 00837  48.5218 134.5384 3975560 263.1436   0.6941  0.23999648 53363,48.5218,0.397556,0.23999648,134.5384,263.1436,0.6941
837,OPS 3674 (VELA 4),HAO,24337.37149997,1 00837U 64040B   24337.37149997  .00000698  00000-0  00000-0 0    17\,2 00837  48.5358 134.4787 3988553 262.9879   0.9556  0.23998795 53376,48.5358,0.3988553,0.23998795,134.4787,262.9879,0.9556
837,OPS 3674 (VELA 4),HAO,24341.53333404,1   837U 64040B   24341.53333404  .00000689  00000-0  00000+0 0  2200\,2   837  48.5475 134.4246 4003779 262.8548   0.7168  0.23992431 52981,48.5475,0.4003779,0.23992431,134.4246,262.8548,0.7168
837,OPS 3674 (VELA 4),HAO,24341.53388513,1 00837U 64040B   24341.53388513  .00000689  00000-0  00000-0 0    19\,2 00837  48.5475 134.4236 4003720 262.8540   0.7657  0.23992387 53386,48.5475,0.400372,0.23992387,134.4236,262.854,0.7657
837,OPS 3674 (VELA 4),HAO,24345.69535731,1   837U 64040B   24345.69535731  .00000675  00000-0  00000+0 0  2225\,2   837  48.5509 134.3491 4017602 262.8261   0.3393  0.23984130 52996,48.5509,0.4017602,0.2398413,134.3491,262.8261,0.3393
837,OPS 3674 (VELA 4),HAO,24345.69567441,1 00837U 64040B   24345.69567441  .00000675  00000-0  00000-0 0    14\,2 00837  48.5510 134.3487 4017544 262.8290   0.3652  0.23984060 53395,48.551,0.4017544,0.2398406,134.3487,262.829,0.3652
837,OPS 3674 (VELA 4),HAO,24345.69676310,1 00837U 64040B   24345.69676310  .00000675  00000-0  00000-0 0    10\,2 00837  48.5513 134.3472 4017373 262.8371   0.4548  0.23983911 53391,48.5513,0.4017373,0.23983911,134.3472,262.8371,0.4548
837,OPS 3674 (VELA 4),HAO,24345.69812617,1 00837U 64040B   24345.69812617  .00000675  00000-0  00000-0 0    12\,2 00837  48.5514 134.3468 4017582 262.8330   0.5741  0.23984053 53400,48.5514,0.4017582,0.23984053,134.3468,262.833,0.5741
837,OPS 3674 (VELA 4),HAO,24362.35006055,1   837U 64040B   24362.35006055  .00000558  00000-0  00000+0 0  2241\,2   837  48.5888 134.0255 4063883 262.3553   0.0402  0.24000145 53032,48.5888,0.4063883,0.24000145,134.0255,262.3553,0.0402
837,OPS 3674 (VELA 4),HAO,24366.51612947,1 00837U 64040B   24366.51612947  .00000504  00000-0  00000-0 0    11\,2 00837  48.6004 133.9668 4079122 262.2040   0.2091  0.23996295 53453,48.6004,0.4079122,0.23996295,133.9668,262.204,0.2091
837,OPS 3674 (VELA 4),HAO,24366.51813557,1 00837U 64040B   24366.51813557  .00000504  00000-0  00000-0 0    11\,2 00837  48.6004 133.9677 4079146 262.2032   0.3822  0.23996304 53443,48.6004,0.4079146,0.23996304,133.9677,262.2032,0.3822
837,OPS 3674 (VELA 4),HAO,25008.84578639,1 00837U 64040B   25008.84578639  .00000350  00000-0  00000-0 0    19,2 00837  48.6042 133.8134 4107418 262.1390 359.9818  0.23984654 53478,48.6042,0.4107418,0.23984654,133.8134,262.139,359.9818
837,OPS 3674 (VELA 4),HAO,25017.17568034,1 00837U 64040B   25017.17568034  .00000192  00000-0  00000-0 0    17,2 00837  48.6266 133.6243 4130160 261.9308 359.9860  0.24000270 53483,48.6266,0.413016,0.2400027,133.6243,261.9308,359.986
837,OPS 3674 (VELA 4),HAO,25017.17896740,1   837U 64040B   25017.17896740  .00000192  00000-0  00000+0 0  2285,2   837  48.6272 133.6245 4130363 261.9275   0.2712  0.24000403 53086,48.6272,0.4130363,0.24000403,133.6245,261.9275,0.2712
837,OPS 3674 (VELA 4),HAO,25021.33419455,1 00837U 64040B   25021.33419455  .00000286  00000-0  00000-0 0    16,2 00837  48.6225 133.5602 4144081 261.7673 359.5604  0.23998551 53496,48.6225,0.4144081,0.23998551,133.5602,261.7673,359.5604
837,OPS 3674 (VELA 4),HAO,25021.33419532,1 00837U 64040B   25021.33419532  .00000286  00000-0  00000-0 0    12,2 00837  48.6225 133.5602 4144093 261.7673 359.5604  0.23998546 53493,48.6225,0.4144093,0.23998546,133.5602,261.7673,359.5604
837,OPS 3674 (VELA 4),HAO,25029.66801343,1   837U 64040B   25029.66801343  .00000245  00000-0  00000+0 0  2321,2   837  48.6361 133.4371 4176259 261.5176 359.9798  0.23992459 53115,48.6361,0.4176259,0.23992459,133.4371,261.5176,359.9798
837,OPS 3674 (VELA 4),HAO,25054.65799093,1 00837U 64040B   25054.65799093  .00000124  00000-0  00000-0 0    17,2 00837  48.6560 132.9404 4258237 261.0241 359.9771  0.23997435 53572,48.656,0.4258237,0.23997435,132.9404,261.0241,359.9771
837,OPS 3674 (VELA 4),HAO,25054.65801296,1 00837U 64040B   25054.65801296  .00000124  00000-0  00000-0 0    16,2 00837  48.6561 132.9413 4258247 261.0234 359.9791  0.23997441 53575,48.6561,0.4258247,0.23997441,132.9413,261.0234,359.9791
837,OPS 3674 (VELA 4),HAO,25075.48612499,1   837U 64040B   25075.48612499  .00000153  00000-0  00000+0 0  2344,2   837  48.6639 132.4899 4324670 260.7082   0.1524  0.23998196 53224,48.6639,0.432467,0.23998196,132.4899,260.7082,0.1524
837,OPS 3674 (VELA 4),HAO,25079.65269448,1 00837U 64040B   25079.65269448  .00000214  00000-0  00000-0 0    10,2 00837  48.6716 132.4217 4339136 260.5976   0.3496  0.23999852 53632,48.6716,0.4339136,0.23999852,132.4217,260.5976,0.3496
837,OPS 3674 (VELA 4),HAO,25104.64541123,1 00837U 64040B   25104.64541123  .00000407  00000-0  00000-0 0    15,2 00837  48.6998 131.9020 4420611 260.1689   0.5585  0.24000412 53699,48.6998,0.4420611,0.24000412,131.902,260.1689,0.5585
837,OPS 3674 (VELA 4),HAO,25137.96789802,1   837U 64040B   25137.96789802  .00000630  00000-0  00000+0 0  2372,2   837  48.7614 131.2630 4533127 259.5022   0.8905  0.23995819 53372,48.7614,0.4533127,0.23995819,131.263,259.5022,0.8905
837,OPS 3674 (VELA 4),HAO,25137.96814627,1 00837U 64040B   25137.96814627  .00000630  00000-0  00000-0 0    16,2 00837  48.7612 131.2601 4533112 259.5038   0.9131  0.23995795 53778,48.7612,0.4533112,0.23995795,131.2601,259.5038,0.9131
837,OPS 3674 (VELA 4),HAO,25146.29392723,1 00837U 64040B   25146.29392723  .00000551  00000-0  00000-0 0    12,2 00837  48.7673 131.0894 4559936 259.5022   0.3197  0.23988182 53792,48.7673,0.4559936,0.23988182,131.0894,259.5022,0.3197
837,OPS 3674 (VELA 4),HAO,25146.29620780,1 00837U 64040B   25146.29620780  .00000551  00000-0  00000-0 0    19,2 00837  48.7681 131.0869 4559902 259.4997   0.5164  0.23988113 53808,48.7681,0.4559902,0.23988113,131.0869,259.4997,0.5164
837,OPS 3674 (VELA 4),HAO,25175.44420317,1   837U 64040B   25175.44420317  .00000300  00000-0  00000+0 0  2464,2   837  48.8142 130.5073 4662517 258.9899 359.8872  0.23995613 53465,48.8142,0.4662517,0.23995613,130.5073,258.9899,359.8872
837,OPS 3674 (VELA 4),HAO,25175.44435567,1 00837U 64040B   25175.44435567  .00000300  00000-0  00000-0 0    17,2 00837  48.8142 130.5070 4662490 258.9900 359.9003  0.23995593 53863,48.8142,0.466249,0.23995593,130.507,258.99,359.9003
837,OPS 3674 (VELA 4),HAO,25175.44582601,1 00837U 64040B   25175.44582601  .00000300  00000-0  00000-0 0    19,2 00837  48.8142 130.5068 4662483 258.9899   0.0283  0.23995592 53862,48.8142,0.4662483,0.23995592,130.5068,258.9899,0.0283
837,OPS 3674 (VELA 4),HAO,25183.77199680,1   837U 64040B   25183.77199680  .00000374  00000-0  00000+0 0  2523,2   837  48.8059 130.3055 4693471 258.7667 359.8156  0.23997730 53483,48.8059,0.4693471,0.2399773,130.3055,258.7667,359.8156
837,OPS 3674 (VELA 4),HAO,25183.77216796,1   837U 64040B   25183.77216796  .00000374  00000-0  00000+0 0  2532,2   837  48.8061 130.3077 4693313 258.7669 359.8300  0.23997621 53487,48.8061,0.4693313,0.23997621,130.3077,258.7669,359.83
